GLOBALSTAR M075         
1 37192U 10054E   25033.54143419 -.00000100  00000+0  19767-4 0  9991
2 37192  51.9924 231.5037 0001041  87.1061 291.7702 12.62272738658843
GLOBALSTAR M073         
1 37193U 10054F   25033.47566525 -.00000087  00000+0  92284-4 0  9990
2 37193  52.0052 145.4201 0000891 102.3718 336.1261 12.62262802660821
GLOBALSTAR M083         
1 37739U 11033A   25033.58564003 -.00000076  00000+0  15236-3 0  9994
2 37739  51.9859  93.9994 0000390 115.0852  44.6682 12.62271409629859
GLOBALSTAR M088         
1 37740U 11033B   25033.31896396 -.00000092  00000+0  65328-4 0  9996
2 37740  51.9800   0.4106 0000207  63.2878  84.1748 12.62274239625362
GLOBALSTAR M091         
1 37741U 11033C   25032.83237854 -.00000076  00000+0  15535-3 0  9997
2 37741  52.0027 325.2133 0000362  37.7449 357.0132 12.62264471626093
GLOBALSTAR M085         
1 37742U 11033D   25033.08159084 -.00000076  00000+0  15525-3 0  9993
2 37742  51.9863 275.6146 0000718  58.7215  88.9106 12.62264998626636
GLOBALSTAR M081         
1 37743U 11033E   25033.71647792 -.00000077  00000+0  15219-3 0  9993
2 37743  51.9952 276.3833 0000907  55.7126 339.4890 12.62260184627240
GLOBALSTAR M089         
1 37744U 11033F   25033.77243307 -.00000094  00000+0  56307-4 0  9997
2 37744  51.9903 230.4658 0001267  88.0167  20.6377 12.62266015627964
